[{"OBJECT_NAME":"STARLINK-3306","OBJECT_ID":"2021-125H","EPOCH":"2026-03-09T22:53:36.225600","MEAN_MOTION":15.0881478,"ECCENTRICITY":0.00013466,"INCLINATION":53.2161,"RA_OF_ASC_NODE":237.9248,"ARG_OF_PERICENTER":89.9292,"MEAN_ANOMALY":270.1855,"EPHEMERIS_TYPE":0,"CLASSIFICATION_TYPE":"U","NORAD_CAT_ID":50163,"ELEMENT_SET_NO":999,"REV_AT_EPOCH":23677,"BSTAR":0.00031594804,"MEAN_MOTION_DOT":4.741e-5,"MEAN_MOTION_DDOT":0},{"OBJECT_NAME":"CZ-6A DEB","OBJECT_ID":"2024-140ZQ","EPOCH":"2026-03-09T07:41:20.503680","MEAN_MOTION":14.88666488,"ECCENTRICITY":0.01239144,"INCLINATION":88.9332,"RA_OF_ASC_NODE":275.1602,"ARG_OF_PERICENTER":122.3295,"MEAN_ANOMALY":239.0003,"EPHEMERIS_TYPE":0,"CLASSIFICATION_TYPE":"U","NORAD_CAT_ID":61458,"ELEMENT_SET_NO":999,"REV_AT_EPOCH":8241,"BSTAR":0.001542641,"MEAN_MOTION_DOT":0.00016654,"MEAN_MOTION_DDOT":0}]
